CCSDS_OMM_VERS = 2.0
CREATION_DATE  = 
ORIGINATOR     = 

OBJECT_NAME    = STARLINK-36966
OBJECT_ID      = 2026-041E
CENTER_NAME    = EARTH
REF_FRAME      = TEME
TIME_SYSTEM    = UTC
MEAN_ELEMENT_THEORY = SGP/SGP4

EPOCH          = 2026-03-12T22:00:01.999584
MEAN_MOTION    = 15.81589585
ECCENTRICITY   = .0001142
INCLINATION    = 53.1590
RA_OF_ASC_NODE = 45.9265
ARG_OF_PERICENTER = 92.3610
MEAN_ANOMALY   = 106.5089

EPHEMERIS_TYPE = 0
CLASSIFICATION_TYPE = U
NORAD_CAT_ID   = 68044
ELEMENT_SET_NO = 999
REV_AT_EPOCH   = 289
BSTAR          = -.47562E-2
MEAN_MOTION_DOT = -.878137E-2
MEAN_MOTION_DDOT = 0

CCSDS_OMM_VERS = 2.0
CREATION_DATE  = 
ORIGINATOR     = 

OBJECT_NAME    = STARLINK-36864
OBJECT_ID      = 2026-041F
CENTER_NAME    = EARTH
REF_FRAME      = TEME
TIME_SYSTEM    = UTC
MEAN_ELEMENT_THEORY = SGP/SGP4

EPOCH          = 2026-03-12T22:00:01.999584
MEAN_MOTION    = 15.81349764
ECCENTRICITY   = .0000769
INCLINATION    = 53.1591
RA_OF_ASC_NODE = 45.9350
ARG_OF_PERICENTER = 102.9715
MEAN_ANOMALY   = 91.7974

EPHEMERIS_TYPE = 0
CLASSIFICATION_TYPE = U
NORAD_CAT_ID   = 68045
ELEMENT_SET_NO = 999
REV_AT_EPOCH   = 289
BSTAR          = -.35093E-2
MEAN_MOTION_DOT = -.657412E-2
MEAN_MOTION_DDOT = 0

CCSDS_OMM_VERS = 2.0
CREATION_DATE  = 
ORIGINATOR     = 

OBJECT_NAME    = STARLINK-36321
OBJECT_ID      = 2026-041G
CENTER_NAME    = EARTH
REF_FRAME      = TEME
TIME_SYSTEM    = UTC
MEAN_ELEMENT_THEORY = SGP/SGP4

EPOCH          = 2026-03-12T22:00:01.999584
MEAN_MOTION    = 15.82017271
ECCENTRICITY   = .0001173
INCLINATION    = 53.1590
RA_OF_ASC_NODE = 45.9095
ARG_OF_PERICENTER = 114.3690
MEAN_ANOMALY   = 92.6932

EPHEMERIS_TYPE = 0
CLASSIFICATION_TYPE = U
NORAD_CAT_ID   = 68046
ELEMENT_SET_NO = 999
REV_AT_EPOCH   = 289
BSTAR          = -.70018E-2
MEAN_MOTION_DOT = -.1285218E-1
MEAN_MOTION_DDOT = 0

CCSDS_OMM_VERS = 2.0
CREATION_DATE  = 
ORIGINATOR     = 

OBJECT_NAME    = STARLINK-36181
OBJECT_ID      = 2026-041H
CENTER_NAME    = EARTH
REF_FRAME      = TEME
TIME_SYSTEM    = UTC
MEAN_ELEMENT_THEORY = SGP/SGP4

EPOCH          = 2026-03-12T22:00:01.999584
MEAN_MOTION    = 15.81831096
ECCENTRICITY   = .0001107
INCLINATION    = 53.1592
RA_OF_ASC_NODE = 45.9177
ARG_OF_PERICENTER = 111.7209
MEAN_ANOMALY   = 91.2444

EPHEMERIS_TYPE = 0
CLASSIFICATION_TYPE = U
NORAD_CAT_ID   = 68047
ELEMENT_SET_NO = 999
REV_AT_EPOCH   = 277
BSTAR          = -.63092E-2
MEAN_MOTION_DOT = -.1162708E-1
MEAN_MOTION_DDOT = 0

CCSDS_OMM_VERS = 2.0
CREATION_DATE  = 
ORIGINATOR     = 

OBJECT_NAME    = STARLINK-36318
OBJECT_ID      = 2026-041J
CENTER_NAME    = EARTH
REF_FRAME      = TEME
TIME_SYSTEM    = UTC
MEAN_ELEMENT_THEORY = SGP/SGP4

EPOCH          = 2026-03-12T22:00:01.999584
MEAN_MOTION    = 15.82257361
ECCENTRICITY   = .0001104
INCLINATION    = 53.1591
RA_OF_ASC_NODE = 45.9010
ARG_OF_PERICENTER = 117.5668
MEAN_ANOMALY   = 93.5197

EPHEMERIS_TYPE = 0
CLASSIFICATION_TYPE = U
NORAD_CAT_ID   = 68048
ELEMENT_SET_NO = 999
REV_AT_EPOCH   = 289
BSTAR          = -.79989E-2
MEAN_MOTION_DOT = -.1488143E-1
MEAN_MOTION_DDOT = 0

CCSDS_OMM_VERS = 2.0
CREATION_DATE  = 
ORIGINATOR     = 

OBJECT_NAME    = STARLINK-36885
OBJECT_ID      = 2026-041K
CENTER_NAME    = EARTH
REF_FRAME      = TEME
TIME_SYSTEM    = UTC
MEAN_ELEMENT_THEORY = SGP/SGP4

EPOCH          = 2026-03-12T22:00:01.999584
MEAN_MOTION    = 15.82498561
ECCENTRICITY   = .0001328
INCLINATION    = 53.1591
RA_OF_ASC_NODE = 45.8841
ARG_OF_PERICENTER = 108.9453
MEAN_ANOMALY   = 110.3230

EPHEMERIS_TYPE = 0
CLASSIFICATION_TYPE = U
NORAD_CAT_ID   = 68049
ELEMENT_SET_NO = 999
REV_AT_EPOCH   = 289
BSTAR          = -.79848E-2
MEAN_MOTION_DOT = -.1501035E-1
MEAN_MOTION_DDOT = 0

CCSDS_OMM_VERS = 2.0
CREATION_DATE  = 
ORIGINATOR     = 

OBJECT_NAME    = STARLINK-36945
OBJECT_ID      = 2026-041L
CENTER_NAME    = EARTH
REF_FRAME      = TEME
TIME_SYSTEM    = UTC
MEAN_ELEMENT_THEORY = SGP/SGP4

EPOCH          = 2026-03-12T22:00:01.999584
MEAN_MOTION    = 15.82371748
ECCENTRICITY   = .0000974
INCLINATION    = 53.1589
RA_OF_ASC_NODE = 45.8926
ARG_OF_PERICENTER = 102.9682
MEAN_ANOMALY   = 112.2234

EPHEMERIS_TYPE = 0
CLASSIFICATION_TYPE = U
NORAD_CAT_ID   = 68050
ELEMENT_SET_NO = 999
REV_AT_EPOCH   = 289
BSTAR          = -.80155E-2
MEAN_MOTION_DOT = -.1497908E-1
MEAN_MOTION_DDOT = 0

CCSDS_OMM_VERS = 2.0
CREATION_DATE  = 
ORIGINATOR     = 

OBJECT_NAME    = STARLINK-35911
OBJECT_ID      = 2026-041M
CENTER_NAME    = EARTH
REF_FRAME      = TEME
TIME_SYSTEM    = UTC
MEAN_ELEMENT_THEORY = SGP/SGP4

EPOCH          = 2026-03-12T22:00:01.999584
MEAN_MOTION    = 15.82612151
ECCENTRICITY   = .0000991
INCLINATION    = 53.1591
RA_OF_ASC_NODE = 45.8760
ARG_OF_PERICENTER = 112.2055
MEAN_ANOMALY   = 111.1535

EPHEMERIS_TYPE = 0
CLASSIFICATION_TYPE = U
NORAD_CAT_ID   = 68051
ELEMENT_SET_NO = 999
REV_AT_EPOCH   = 285
BSTAR          = -.82438E-2
MEAN_MOTION_DOT = -.1550845E-1
MEAN_MOTION_DDOT = 0

CCSDS_OMM_VERS = 2.0
CREATION_DATE  = 
ORIGINATOR     = 

OBJECT_NAME    = STARLINK-35808
OBJECT_ID      = 2026-041N
CENTER_NAME    = EARTH
REF_FRAME      = TEME
TIME_SYSTEM    = UTC
MEAN_ELEMENT_THEORY = SGP/SGP4

EPOCH          = 2026-03-12T22:00:01.999584
MEAN_MOTION    = 15.82727809
ECCENTRICITY   = .0000972
INCLINATION    = 53.1592
RA_OF_ASC_NODE = 45.8668
ARG_OF_PERICENTER = 109.4655
MEAN_ANOMALY   = 117.9114

EPHEMERIS_TYPE = 0
CLASSIFICATION_TYPE = U
NORAD_CAT_ID   = 68052
ELEMENT_SET_NO = 999
REV_AT_EPOCH   = 285
BSTAR          = -.79546E-2
MEAN_MOTION_DOT = -.1510204E-1
MEAN_MOTION_DDOT = 0

CCSDS_OMM_VERS = 2.0
CREATION_DATE  = 
ORIGINATOR     = 

OBJECT_NAME    = STARLINK-36919
OBJECT_ID      = 2026-041P
CENTER_NAME    = EARTH
REF_FRAME      = TEME
TIME_SYSTEM    = UTC
MEAN_ELEMENT_THEORY = SGP/SGP4

EPOCH          = 2026-03-12T22:00:01.999584
MEAN_MOTION    = 15.82812421
ECCENTRICITY   = .0000876
INCLINATION    = 53.1591
RA_OF_ASC_NODE = 45.8585
ARG_OF_PERICENTER = 114.3643
MEAN_ANOMALY   = 117.0689

EPHEMERIS_TYPE = 0
CLASSIFICATION_TYPE = U
NORAD_CAT_ID   = 68053
ELEMENT_SET_NO = 999
REV_AT_EPOCH   = 289
BSTAR          = -.7574E-2
MEAN_MOTION_DOT = -.1451278E-1
MEAN_MOTION_DDOT = 0

CCSDS_OMM_VERS = 2.0
CREATION_DATE  = 
ORIGINATOR     = 

OBJECT_NAME    = STARLINK-36924
OBJECT_ID      = 2026-041Q
CENTER_NAME    = EARTH
REF_FRAME      = TEME
TIME_SYSTEM    = UTC
MEAN_ELEMENT_THEORY = SGP/SGP4

EPOCH          = 2026-03-12T22:00:01.999584
MEAN_MOTION    = 15.83142376
ECCENTRICITY   = .0001014
INCLINATION    = 53.1587
RA_OF_ASC_NODE = 45.8428
ARG_OF_PERICENTER = 123.9583
MEAN_ANOMALY   = 115.3778

EPHEMERIS_TYPE = 0
CLASSIFICATION_TYPE = U
NORAD_CAT_ID   = 68054
ELEMENT_SET_NO = 999
REV_AT_EPOCH   = 289
BSTAR          = -.80272E-2
MEAN_MOTION_DOT = -.1549017E-1
MEAN_MOTION_DDOT = 0

CCSDS_OMM_VERS = 2.0
CREATION_DATE  = 
ORIGINATOR     = 

OBJECT_NAME    = STARLINK-35998
OBJECT_ID      = 2026-041R
CENTER_NAME    = EARTH
REF_FRAME      = TEME
TIME_SYSTEM    = UTC
MEAN_ELEMENT_THEORY = SGP/SGP4

EPOCH          = 2026-03-12T22:00:01.999584
MEAN_MOTION    = 15.83013947
ECCENTRICITY   = .0000976
INCLINATION    = 53.1591
RA_OF_ASC_NODE = 45.8505
ARG_OF_PERICENTER = 100.5451
MEAN_ANOMALY   = 134.8199

EPHEMERIS_TYPE = 0
CLASSIFICATION_TYPE = U
NORAD_CAT_ID   = 68055
ELEMENT_SET_NO = 999
REV_AT_EPOCH   = 285
BSTAR          = -.81085E-2
MEAN_MOTION_DOT = -.1554348E-1
MEAN_MOTION_DDOT = 0

CCSDS_OMM_VERS = 2.0
CREATION_DATE  = 
ORIGINATOR     = 

OBJECT_NAME    = STARLINK-36845
OBJECT_ID      = 2026-041S
CENTER_NAME    = EARTH
REF_FRAME      = TEME
TIME_SYSTEM    = UTC
MEAN_ELEMENT_THEORY = SGP/SGP4

EPOCH          = 2026-03-12T22:00:01.999584
MEAN_MOTION    = 15.83286968
ECCENTRICITY   = .0001043
INCLINATION    = 53.1588
RA_OF_ASC_NODE = 45.8343
ARG_OF_PERICENTER = 98.3956
MEAN_ANOMALY   = 144.8751

EPHEMERIS_TYPE = 0
CLASSIFICATION_TYPE = U
NORAD_CAT_ID   = 68056
ELEMENT_SET_NO = 999
REV_AT_EPOCH   = 289
BSTAR          = -.80081E-2
MEAN_MOTION_DOT = -.1555193E-1
MEAN_MOTION_DDOT = 0

CCSDS_OMM_VERS = 2.0
CREATION_DATE  = 
ORIGINATOR     = 

OBJECT_NAME    = STARLINK-36954
OBJECT_ID      = 2026-041T
CENTER_NAME    = EARTH
REF_FRAME      = TEME
TIME_SYSTEM    = UTC
MEAN_ELEMENT_THEORY = SGP/SGP4

EPOCH          = 2026-03-12T22:00:01.999584
MEAN_MOTION    = 15.83415226
ECCENTRICITY   = .0000912
INCLINATION    = 53.1590
RA_OF_ASC_NODE = 45.8260
ARG_OF_PERICENTER = 106.8293
MEAN_ANOMALY   = 140.3837

EPHEMERIS_TYPE = 0
CLASSIFICATION_TYPE = U
NORAD_CAT_ID   = 68057
ELEMENT_SET_NO = 999
REV_AT_EPOCH   = 289
BSTAR          = -.79385E-2
MEAN_MOTION_DOT = -.1551579E-1
MEAN_MOTION_DDOT = 0

CCSDS_OMM_VERS = 2.0
CREATION_DATE  = 
ORIGINATOR     = 

OBJECT_NAME    = STARLINK-36899
OBJECT_ID      = 2026-041U
CENTER_NAME    = EARTH
REF_FRAME      = TEME
TIME_SYSTEM    = UTC
MEAN_ELEMENT_THEORY = SGP/SGP4

EPOCH          = 2026-03-12T22:00:01.999584
MEAN_MOTION    = 15.83581095
ECCENTRICITY   = .000093
INCLINATION    = 53.1589
RA_OF_ASC_NODE = 45.8182
ARG_OF_PERICENTER = 102.4604
MEAN_ANOMALY   = 148.5706

EPHEMERIS_TYPE = 0
CLASSIFICATION_TYPE = U
NORAD_CAT_ID   = 68058
ELEMENT_SET_NO = 999
REV_AT_EPOCH   = 289
BSTAR          = -.78661E-2
MEAN_MOTION_DOT = -.1549948E-1
MEAN_MOTION_DDOT = 0

